[{"OBJECT_NAME":"YAOGAN-36 02B","OBJECT_ID":"2022-133B","EPOCH":"2026-03-09T22:42:31.775904","MEAN_MOTION":15.30199518,"ECCENTRICITY":0.00056841,"INCLINATION":34.9983,"RA_OF_ASC_NODE":22.5268,"ARG_OF_PERICENTER":273.0351,"MEAN_ANOMALY":86.9715,"EPHEMERIS_TYPE":0,"CLASSIFICATION_TYPE":"U","NORAD_CAT_ID":54043,"ELEMENT_SET_NO":999,"REV_AT_EPOCH":18962,"BSTAR":0.00051218814,"MEAN_MOTION_DOT":0.00015352,"MEAN_MOTION_DDOT":0},{"OBJECT_NAME":"STARLINK-32404","OBJECT_ID":"2024-196D","EPOCH":"2026-03-09T08:43:00.462720","MEAN_MOTION":15.3018806,"ECCENTRICITY":0.00012747,"INCLINATION":53.1598,"RA_OF_ASC_NODE":103.0657,"ARG_OF_PERICENTER":76.9495,"MEAN_ANOMALY":283.1648,"EPHEMERIS_TYPE":0,"CLASSIFICATION_TYPE":"U","NORAD_CAT_ID":61710,"ELEMENT_SET_NO":999,"REV_AT_EPOCH":7710,"BSTAR":2.1940495e-5,"MEAN_MOTION_DOT":2.9e-6,"MEAN_MOTION_DDOT":0}]
